KUIPER-00165            
1 65778U 25217S   25363.33335648 -.01450596  00000+0 -12459+0 0  9995
2 65778  51.8930 347.9656 0006229  89.8177 253.7147 15.00496859  4561
KUIPER-00166            
1 65779U 25217T   25363.20716702  .00057060  00000+0  14967-2 0  9991
2 65779  51.8724 344.3588 0004404  58.3499 301.7917 15.38097845 14584
KUIPER-00167            
1 65780U 25217U   25363.13752214 -.00210772  00000+0 -29151-1 0  9996
2 65780  51.8985 357.4869 0001438 331.4283  28.6600 14.78974657 14393
KUIPER-00168            
1 65781U 25217V   25363.33335648 -.01341309  00000+0 -58659-1 0  9994
2 65781  51.8800 344.0091 0002980 114.8081 114.6954 15.24746080  1901
KUIPER-00169            
1 65782U 25217W   25363.33335648 -.02036263  00000+0 -14237+0 0  9998
2 65782  51.8877 346.1871 0005497  86.2310 171.8463 15.08785101  5901
KUIPER-00170            
1 65783U 25217X   25363.33335648 -.01098703  00000+0 -10759+0 0  9990
2 65783  51.8943 349.8652 0007952  65.0320 184.5164 14.95057593  4604
KUIPER-00171            
1 65784U 25217Y   25363.20637289  .00393669  00000+0  26995-2 0  9991
2 65784  51.8549 332.4045 0011069  75.1758 285.0469 15.72937573 14744
KUIPER-00172            
1 65785U 25217Z   25363.33335648  .00038898  00000+0  17947-2 0  9997
2 65785  51.8798 344.9928 0005580  79.5339 332.3531 15.19848981  2347
KUIPER-00173            
1 65786U 25217AA  25363.33335648 -.01385522  00000+0 -97858-1 0  9998
2 65786  51.8863 346.3722 0000844 113.6551 310.3425 15.07658402  2716
KUIPER-00174            
1 65787U 25217AB  25363.33335648 -.00979164  00000+0 -44779-1 0  9993
2 65787  51.8794 344.1931 0001707  58.8246  32.2391 15.22812060  5576
KUIPER-00176            
1 65788U 25217AC  25363.33335648  .00002522  00000+0  34453-3 0  9997
2 65788  51.9006 354.2542 0001636  76.3282 352.4052 14.81795021  2614
KUIPER-00101            
1 65947U 25228A   25363.33335648  .00028813  00000+0  37721-2 0  9997
2 65947  51.8984 311.7097 0000630  20.1689   1.2589 14.80158761  5529
KUIPER-00113            
1 65948U 25228B   25363.33335648 -.00003129  00000+0 -30636-3 0  9992
2 65948  51.8964 307.0933 0006783  81.1112 274.5125 14.88676123  5557
KUIPER-00117            
1 65949U 25228C   25363.33335648  .00028109  00000+0  34527-2 0  9998
2 65949  51.8985 309.3033 0006023  77.8376 250.9251 14.82828592  3445
KUIPER-00121            
1 65950U 25228D   25363.33335648 -.01899279  00000+0 -17767+0 0  9991
2 65950  51.8921 304.5736 0004752 107.7154 210.7669 14.97057957  2191
KUIPER-00122            
1 65951U 25228E   25363.09022853  .00018370  00000+0  24333-2 0  9998
2 65951  51.8988 315.2747 0000735  39.1981 320.9035 14.79912188 12748
KUIPER-00123            
1 65952U 25228F   25363.12391531  .00002203  00000+0  31815-3 0  9997
2 65952  51.8996 315.1459 0001147  93.2996 266.8098 14.79895396 12740
KUIPER-00124            
1 65953U 25228G   25363.33335648  .00024726  00000+0  30799-2 0  9991
2 65953  51.8989 306.7562 0000113 211.3303 116.8960 14.82321640  5251
KUIPER-00125            
1 65954U 25228H   25363.09519249  .00236278  00000+0  61255-2 0  9994
2 65954  51.8810 301.4219 0008822  10.9223 349.1954 15.37546633 12934
KUIPER-00126            
1 65955U 25228J   25363.33335648  .00030656  00000+0  40223-2 0  9995
2 65955  51.8993 311.7288 0001331  65.0945 136.7450 14.80034246  3522
KUIPER-00127            
1 65956U 25228K   25362.87655184  .00018092  00000+0  15381-2 0  9991
2 65956  51.8991 310.3202 0005371 113.9101 246.2432 14.97878178 12791
KUIPER-00128            
1 65957U 25228L   25363.33335648 -.01034940  00000+0 -10456+0 0  9992
2 65957  51.8938 304.8806 0003976 102.4138 285.8751 14.93687256  4417
KUIPER-00129            
1 65958U 25228M   25363.33335648 -.01142149  00000+0 -70528-1 0  9992
2 65958  51.8836 301.8418 0002180  30.0755 182.0606 15.12399605  5393
KUIPER-00130            
1 65959U 25228N   25363.33335648 -.01385839  00000+0 -10845+0 0  9992
2 65959  51.8879 303.1449 0005939  99.6898 194.2693 15.03839708  5624
KUIPER-00134            
1 65960U 25228P   25362.27365346  .00052075  00000+0  14586-2 0  9993
2 65960  51.8782 305.6617 0007674  73.7511 286.4319 15.36085264 12809
KUIPER-00135            
1 65961U 25228Q   25363.33335648  .00039008  00000+0  28529-2 0  9997
2 65961  51.8934 303.4537 0006000  89.9470 321.8366 15.03223075  5829
KUIPER-00136            
1 65962U 25228R   25363.33335648 -.00036822  00000+0 -22266-2 0  9993
2 65962  51.8883 301.8888 0005662  95.4787  14.6347 15.10086683  2597
KUIPER-00137            
1 65963U 25228S   25363.33335648 -.01319276  00000+0 -60772-1 0  9995
2 65963  51.8839 300.9953 0005481  91.8390 167.8839 15.22938066  3111
KUIPER-00138            
1 65964U 25228T   25363.33335648 -.00159728  00000+0 -53329-2 0  9990
2 65964  51.8793 300.6370 0007684  80.5148 345.2389 15.31105804  4562
KUIPER-00140            
1 65965U 25228U   25363.33335648 -.00989788  00000+0 -47962-1 0  9993
2 65965  51.8835 301.3188 0007412  71.7774 348.3335 15.20836345  4891
KUIPER-00141            
1 65966U 25228V   25363.33335648 -.00296613  00000+0 -86380-2 0  9990
2 65966  51.8794 300.2732 0005379  85.9785 152.1018 15.36031117  4090
KUIPER-00146            
1 65967U 25228W   25363.33335648 -.00664955  00000+0 -23990-1 0  9996
2 65967  51.8799 300.6346 0007504  84.6081 330.3652 15.30379341  4584
KUIPER-00149            
1 65968U 25228X   25363.09879167  .00053796  00000+0  14850-2 0  9998
2 65968  51.8798 301.4520 0005306  79.9335 280.2250 15.36539396 12933
KUIPER-00154            
1 65969U 25228Y   25363.10365026  .00054524  00000+0  15098-2 0  9990
2 65969  51.8807 301.4788 0006010  80.8813 279.2853 15.36432212 12932
KUIPER-00157            
1 65970U 25228Z   25362.26999480  .00036476  00000+0  10069-2 0  9994
2 65970  51.8795 305.6524 0007649  86.9624 273.2238 15.36703600 12809
KUIPER-00144            
1 67133U 25301A   25363.23769075  .00030286  00000+0  86837-3 0  9992
2 67133  51.8711  45.5761 0006331 129.6051 230.5495 15.35617522  2906
KUIPER-00164            
1 67134U 25301B   25363.23165399  .00045994  00000+0  12836-2 0  9991
2 67134  51.8726  45.5370 0002866 105.0413 255.0891 15.36275404  3080
KUIPER-00175            
1 67135U 25301C   25363.22759648  .00046524  00000+0  12794-2 0  9990
2 67135  51.8740  45.5046 0002371  66.4037 293.7198 15.36730520  2971
KUIPER-00179            
1 67136U 25301D   25363.23021495  .00048927  00000+0  13598-2 0  9996
2 67136  51.8740  45.5241 0002873  92.5233 267.6082 15.36377907  3085
KUIPER-00181            
1 67137U 25301E   25363.31154721  .00020793  00000+0  62111-3 0  9992
2 67137  51.8659  45.3178 0010041 151.3573 208.7966 15.34519468  3073
KUIPER-00183            
1 67138U 25301F   25363.24920797  .00023196  00000+0  69816-3 0  9998
2 67138  51.8630  45.6475 0011020 156.5858 203.5631 15.34200790  3074
KUIPER-00184            
1 67139U 25301G   25363.31082524  .00040302  00000+0  11908-2 0  9990
2 67139  51.8643  45.3133 0008997 152.0283 208.1187 15.34513481  3193
KUIPER-00186            
1 67140U 25301H   25363.30622442  .00030317  00000+0  88080-3 0  9991
2 67140  51.8695  45.2848 0007638 139.1862 220.9697 15.35194713  2915
KUIPER-00187            
1 67141U 25301J   25363.29943024  .00024423  00000+0  69520-3 0  9991
2 67141  51.8716  45.2408 0004485 123.1242 237.0175 15.35972684  2915
KUIPER-00188            
1 67142U 25301K   25363.30704081  .00030035  00000+0  87542-3 0  9992
2 67142  51.8706  45.2899 0007400 143.7803 216.3685 15.35100784  2910
KUIPER-00191            
1 67143U 25301L   25363.30509035  .00032024  00000+0  92726-3 0  9995
2 67143  51.8685  45.2785 0006574 139.1898 220.9581 15.35279659  2942
KUIPER-00196            
1 67144U 25301M   25363.29766585  .00031622  00000+0  89267-3 0  9998
2 67144  51.8733  45.2270 0003802 105.2385 254.9022 15.36093943  2917
KUIPER-00204            
1 67145U 25301N   25363.22820996  .00024324  00000+0  67745-3 0  9997
2 67145  51.8741  45.5065 0002183  82.7890 277.3345 15.36662237  3010
KUIPER-00210            
1 67146U 25301P   25363.24846495  .00028388  00000+0  84786-3 0  9990
2 67146  51.8617  45.6419 0010473 159.0305 201.1112 15.34334356  3076
KUIPER-00221            
1 67147U 25301Q   25363.30029547  .00025533  00000+0  73003-3 0  9998
2 67147  51.8722  45.2461 0004986 122.1440 238.0031 15.35806158  2916
KUIPER-00232            
1 67148U 25301R   25363.22676822  .00051755  00000+0  14164-2 0  9991
2 67148  51.8736  45.5022 0001850  60.2232 299.8939 15.36834182  2906
KUIPER-00241            
1 67149U 25301S   25363.23072923  .00039875  00000+0  11113-2 0  9995
2 67149  51.8745  45.5258 0003005 104.5013 255.6306 15.36382763  3239
KUIPER-00245            
1 67150U 25301T   25363.23595058  .00048132  00000+0  13635-2 0  9993
2 67150  51.8729  45.5645 0005062 129.2946 230.8490 15.35781289  2904
KUIPER-00246            
1 67151U 25301U   25363.29833558  .00026233  00000+0  74359-3 0  9999
2 67151  51.8738  45.2307 0004057 122.5483 237.5896 15.36064803  2936
KUIPER-00247            
1 67152U 25301V   25363.24998354  .00029382  00000+0  88193-3 0  9990
2 67152  51.8645  45.6534 0011054 162.4040 197.7330 15.34153159  2905
KUIPER-00248            
1 67153U 25301W   25363.24430814  .00039037  00000+0  11420-2 0  9999
2 67153  51.8689  45.6189 0008704 149.8967 210.2520 15.34846276  3075
KUIPER-00249            
1 67154U 25301X   25363.24270755  .00038460  00000+0  11210-2 0  9992
2 67154  51.8664  45.6081 0008120 146.8837 213.2659 15.34972680  2901
KUIPER-00250            
1 67155U 25301Y   25363.23852148  .00029310  00000+0  84378-3 0  9994
2 67155  51.8721  45.5810 0006280 136.2787 223.8697 15.35509407  2933
KUIPER-00251            
1 67156U 25301Z   25363.24353551  .00039972  00000+0  11652-2 0  9999
2 67156  51.8676  45.6136 0008794 145.5495 214.6062 15.34944204  3095
